SKYSAT-C1               
1 41601U 16040C   26168.60715104  .00007126  00000+0  20341-3 0  9998
2 41601  96.9555 200.3043 0003439  57.2822 302.8754 15.36307258557938
LAPAN-A3                
1 41603U 16040E   26168.97438940  .00002843  00000+0  91109-4 0  9992
2 41603  97.1488 165.0941 0010810  23.2158 336.9571 15.33109041554937
GAOFEN-3                
1 41727U 16049A   26168.91651304 -.00000146  00000+0 -31094-4 0  9996
2 41727  98.4004 176.6913 0001408  99.3948 260.7401 14.42214995518753
SKYSAT-C4               
1 41771U 16058B   26168.84907616  .00014363  00000+0  27061-3 0  9999
2 41771  96.9167 190.5936 0001429 135.2823 224.8545 15.48604030545570
SKYSAT-C5               
1 41772U 16058C   26168.62562076  .00006091  00000+0  18463-3 0  9998
2 41772  97.0465 209.2466 0001050 311.8360  48.2794 15.34475443543816
SKYSAT-C2               
1 41773U 16058D   26168.51893196  .00009361  00000+0  22086-3 0  9996
2 41773  97.0162 190.6014 0004647  70.1413 290.0335 15.42076805545102
SKYSAT-C3               
1 41774U 16058E   26168.59454161  .00018287  00000+0  29922-3 0  9993
2 41774  96.8998 199.4253 0001480  95.4933 264.6490 15.52553563546177
ALSAT-1B                
1 41785U 16059C   26168.91981492  .00000246  00000+0  46414-4 0  9996
2 41785  97.7743 177.6519 0008115 217.4580 142.6063 14.72274975520683
PATHFINDER 1            
1 41787U 16059E   26168.95465239  .00000433  00000+0  83916-4 0  9994
2 41787  97.8166 168.1963 0027854 201.0695 158.9365 14.67663897519828
SCATSAT 1               
1 41790U 16059H   26168.75430785  .00000853  00000+0  11890-3 0  9991
2 41790  98.1191 232.5263 0053404 245.6154 113.9478 14.79526505101670
GOKTURK 1A              
1 41875U 16073A   26168.99818218  .00000234  00000+0  55047-4 0  9994
2 41875  98.1254  63.6607 0001452  76.4778 283.6586 14.62774844508946
RESOURCESAT-2A          
1 41877U 16074A   26168.91538396 -.00000101  00000+0 -25860-4 0  9990
2 41877  98.7529 242.4137 0003352  82.3648 277.7909 14.21615568494407
CARTOSAT-2D             
1 41948U 17008A   26168.94881405  .00002246  00000+0  10989-3 0  9997
2 41948  97.4106 228.2406 0003807 231.5221 128.5673 15.19209494517697
SENTINEL-2B             
1 42063U 17013A   26168.97672326 -.00000070  00000+0 -10238-4 0  9998
2 42063  98.5695 243.7400 0001193  87.6805 272.4514 14.30816468484751
CARTOSAT-2E             
1 42767U 17036C   26168.96664454  .00002644  00000+0  12863-3 0  9998
2 42767  97.4274 228.7560 0002454 315.9975  44.1064 15.19258220498268
FORMOSAT-5              
1 42920U 17049A   26168.88046274  .00000125  00000+0  42691-4 0  9993
2 42920  98.2255 244.1748 0012672  82.4479 277.8155 14.50899106466770
SENTINEL-5P             
1 42969U 17064A   26168.83625495  .00000027  00000+0  33724-4 0  9994
2 42969  98.7925 110.9629 0000972  86.1328 273.9959 14.19519042449654
SKYSAT-C11              
1 42987U 17068A   26168.89229567  .00024804  00000+0  33299-3 0  9999
2 42987  97.4359 317.7530 0000600  93.4661 266.6663 15.57925859483354
SKYSAT-C10              
1 42988U 17068B   26168.87918853  .00007470  00000+0  22490-3 0  9992
2 42988  97.4513 305.7325 0001117  97.5319 262.6050 15.34648300482460
SKYSAT-C9               
1 42989U 17068C   26168.88807302  .00011235  00000+0  26892-3 0  9994
2 42989  97.4434 306.6830 0009402 130.7041 229.5024 15.41576841482866
SKYSAT-C8               
1 42990U 17068D   26168.84949204  .00008826  00000+0  24622-3 0  9991
2 42990  97.4530 305.5048 0001464  95.6777 264.4634 15.36987216482411
SKYSAT-C7               
1 42991U 17068E   26168.84313189  .00008861  00000+0  24741-3 0  9990
2 42991  97.4540 306.4879 0007192 104.7950 255.4091 15.36937916482479
SKYSAT-C6               
1 42992U 17068F   26168.86420796  .00007783  00000+0  23732-3 0  9997
2 42992  97.4574 306.4764 0004475 135.7582 224.4020 15.34220824482420
CARTOSAT-2F             
1 43111U 18004A   26168.93297678  .00001842  00000+0  90740-4 0  9995
2 43111  97.4785 228.5601 0000682 200.2138 159.9070 15.19216573467444
GAOFEN-1 02             
1 43259U 18031A   26168.97620167  .00000180  00000+0  33292-4 0  9998
2 43259  98.0527 231.5011 0003814  31.8796 328.2644 14.76456194442814
GAOFEN-1 03             
1 43260U 18031B   26168.95434365  .00000563  00000+0  88340-4 0  9990
2 43260  98.0517 231.3378 0003729  77.5866 282.5761 14.76470090442801
GAOFEN-1 04             
1 43262U 18031D   26168.93005829  .00000365  00000+0  59965-4 0  9990
2 43262  98.0528 231.5043 0002195  75.5163 284.6289 14.76433949442798
SENTINEL-3B             
1 43437U 18039A   26168.82087781  .00000085  00000+0  52992-4 0  9999
2 43437  98.6248 236.3440 0000722  90.0659 270.0604 14.26734886424213
GAOFEN-5 01             
1 43461U 18043A   26168.88378953  .00000269  00000+0  65377-4 0  9996
2 43461  98.4569 140.4846 0003034  82.3249 277.8295 14.60606020431795
GAOFEN-6                
1 43484U 18048A   26169.08760657  .00001695  00000+0  24974-3 0  9996
2 43484  97.9444 231.8246 0012004 163.3227 196.8380 14.76616871433528
